H1 CPF 01  gfz 2021 05 26 00  6461 terrasarx 
H2 0702601  6201 31698    2021 05 26 00 59 42 2021 05 31 00 00 42   120 1 1  0 0 0
H9
10 0 59360  86382.000000  0    -889658.057    971348.560   6750787.827
10 0 59361    102.000000  0    -855340.572   1871890.901   6563386.387
10 0 59361    222.000000  0    -790631.698   2738903.867   6260647.390
10 0 59361    342.000000  0    -697380.674   3556729.991   5847860.035
10 0 59361    462.000000  0    -578201.068   4310597.153   5332244.122
10 0 59361    582.000000  0    -436408.355   4986889.265   4722829.866
10 0 59361    702.000000  0    -275940.761   5573400.429   4030305.773
10 0 59361    822.000000  0    -101263.854   6059562.456   3266833.683
10 0 59361    942.000000  0      82736.860   6436645.806   2445840.743
10 0 59361   1062.000000  0     270875.656   6697930.581   1581779.199
10 0 59361   1182.000000  0     457795.729   6838832.250    689865.835
10 0 59361   1302.000000  0     638103.205   6856987.344   -214192.495
10 0 59361   1422.000000  0     806503.163   6752294.686  -1114484.327
10 0 59361   1542.000000  0     957932.732   6526910.076  -1995182.366
10 0 59361   1662.000000  0    1087688.486   6185196.723  -2840828.799
10 0 59361   1782.000000  0    1191545.866   5733632.247  -3636611.807
10 0 59361   1902.000000  0    1265867.673   5180674.867  -4368627.318
10 0 59361   2022.000000  0    1307698.799   4536592.516  -5024120.596
10 0 59361   2142.000000  0    1314845.071   3813260.136  -5591702.570
10 0 59361   2262.000000  0    1285934.398   3023931.744  -6061539.230
10 0 59361   2382.000000  0    1220459.513   2182990.366  -6425511.690
10 0 59361   2502.000000  0    1118801.489   1305683.326  -6677343.973
10 0 59361   2622.000000  0     982234.383    407847.714  -6812701.498
10 0 59361   2742.000000  0     812910.677   -494371.781  -6829257.853
10 0 59361   2862.000000  0     613827.553  -1384807.538  -6726729.370
10 0 59361   2982.000000  0     388774.983  -2247550.624  -6506877.951
10 0 59361   3102.000000  0     142266.597  -3067227.096  -6173485.638
10 0 59361   3222.000000  0    -120547.431  -3829269.092  -5732297.719
10 0 59361   3342.000000  0    -393982.457  -4520172.366  -5190932.609
10 0 59361   3462.000000  0    -671935.509  -5127738.054  -4558762.055
10 0 59361   3582.000000  0    -948014.498  -5641294.834  -3846760.189
10 0 59361   3702.000000  0   -1215677.612  -6051896.093  -3067322.275
10 0 59361   3822.000000  0   -1468379.802  -6352487.220  -2234055.744
10 0 59361   3942.000000  0   -1699723.552  -6538039.771  -1361546.128
10 0 59361   4062.000000  0   -1903609.892  -6605647.741   -465100.525
10 0 59361   4182.000000  0   -2074386.004  -6554582.135    439525.793
10 0 59361   4302.000000  0   -2206985.896  -6386301.842   1336413.585
10 0 59361   4422.000000  0   -2297060.095  -6104420.311   2209768.615
10 0 59361   4542.000000  0   -2341090.728  -5714628.418   3044209.021
10 0 59361   4662.000000  0   -2336488.628  -5224575.398   3825044.024
10 0 59361   4782.000000  0   -2281670.356  -4643711.733   4538537.590
10 0 59361   4902.000000  0   -2176113.848  -3983099.067   5172152.198
10 0 59361   5022.000000  0   -2020391.817  -3255190.790   5714769.634
10 0 59361   5142.000000  0   -1816180.776  -2473587.954   6156882.674
10 0 59361   5262.000000  0   -1566246.069  -1652779.348   6490755.833
10 0 59361   5382.000000  0   -1274404.604   -807869.192   6710555.318
10 0 59361   5502.000000  0    -945466.337     45703.939   6812444.347
10 0 59361   5622.000000  0    -585155.348    892448.460   6794645.161
10 0 59361   5742.000000  0    -200010.192   1717100.296   6657468.991
10 0 59361   5862.000000  0     202734.735   2504897.830   6403310.982
10 0 59361   5982.000000  0     615284.496   3241845.940   6036610.564
10 0 59361   6102.000000  0    1029432.905   3914965.957   5563778.997
10 0 59361   6222.000000  0    1436724.059   4512528.067   4993093.057
10 0 59361   6342.000000  0    1828623.513   5024261.912   4334556.163
10 0 59361   6462.000000  0    2196695.779   5441540.030   3599727.484
10 0 59361   6582.000000  0    2532785.184   5757531.314   2801523.713
10 0 59361   6702.000000  0    2829194.472   5967323.966   1953991.243
10 0 59361   6822.000000  0    3078858.245   6068007.449   1072053.634
10 0 59361   6942.000000  0    3275504.635   6058713.966    171242.350
10 0 59361   7062.000000  0    3413802.666   5940619.603   -732584.371
10 0 59361   7182.000000  0    3489491.886   5716903.644  -1623529.229
10 0 59361   7302.000000  0    3499490.132   5392668.318  -2485943.053
10 0 59361   7422.000000  0    3441977.388   4974820.413  -3304706.549
10 0 59361   7542.000000  0    3316452.463   4471917.554  -4065499.355
10 0 59361   7662.000000  0    3123762.326   3893984.932  -4755049.672
10 0 59361   7782.000000  0    2866104.142   3252308.295  -5361362.166
10 0 59361   7902.000000  0    2547000.566   2559206.557  -5873919.451
10 0 59361   8022.000000  0    2171249.124   1827790.468  -6283854.694
10 0 59361   8142.000000  0    1744846.862   1071712.562  -6584093.265
10 0 59361   8262.000000  0    1274893.768    304913.901  -6769462.987
10 0 59361   8382.000000  0     769474.780   -458628.697  -6836775.182
10 0 59361   8502.000000  0     237521.345  -1205152.759  -6784873.015
10 0 59361   8622.000000  0    -311342.702  -1921351.431  -6614647.570
10 0 59361   8742.000000  0    -866970.246  -2594603.989  -6329025.261
10 0 59361   8862.000000  0   -1418874.200  -3213195.218  -5932923.725
10 0 59361   8982.000000  0   -1956420.435  -3766517.545  -5433175.248
10 0 59361   9102.000000  0   -2469028.789  -4245254.500  -4838420.923
10 0 59361   9222.000000  0   -2946380.148  -4641543.446  -4158973.140
10 0 59361   9342.000000  0   -3378624.276  -4949111.812  -3406646.271
10 0 59361   9462.000000  0   -3756583.825  -5163384.496  -2594559.314
10 0 59361   9582.000000  0   -4071951.148  -5281560.040  -1736912.043
10 0 59361   9702.000000  0   -4317472.462  -5302652.689   -848737.562
10 0 59361   9822.000000  0   -4487114.152  -5227498.718     54364.274
10 0 59361   9942.000000  0   -4576206.648  -5058726.163    956507.142
10 0 59361  10062.000000  0   -4581562.108  -4800687.817   1841806.679
10 0 59361  10182.000000  0   -4501561.667  -4459358.225   2694669.735
10 0 59361  10302.000000  0   -4336210.646  -4042198.496   3500077.083
10 0 59361  10422.000000  0   -4087160.944  -3557992.688   4243854.387
10 0 59361  10542.000000  0   -3757699.128  -3016659.117   4912926.100
10 0 59361  10662.000000  0   -3352701.228  -2429042.070   5495544.979
10 0 59361  10782.000000  0   -2878557.053  -1806691.004   5981495.453
10 0 59361  10902.000000  0   -2343065.038  -1161630.742   6362269.372
10 0 59361  11022.000000  0   -1755299.281   -506125.552   6631210.609
10 0 59361  11142.000000  0   -1125450.646    147556.139   6783624.080
10 0 59361  11262.000000  0    -464648.855    787369.685   6816851.040
10 0 59361  11382.000000  0     215233.809   1401715.290   6730313.095
10 0 59361  11502.000000  0     901795.333   1979648.111   6525521.962
10 0 59361  11622.000000  0    1582329.735   2511073.309   6206054.039
10 0 59361  11742.000000  0    2244061.160   2986922.409   5777491.767
10 0 59361  11862.000000  0    2874383.935   3399310.425   5247332.893
10 0 59361  11982.000000  0    3461105.608   3741670.794   4624865.370
10 0 59361  12102.000000  0    3992685.223   4008863.028   3921008.419
10 0 59361  12222.000000  0    4458464.180   4197254.520   3148127.718
10 0 59361  12342.000000  0    4848887.809   4304772.567   2319817.398
10 0 59361  12462.000000  0    5155704.578   4330923.491   1450658.761
10 0 59361  12582.000000  0    5372144.516   4276780.423    555958.940
10 0 59361  12702.000000  0    5493068.656   4144938.264   -348526.947
10 0 59361  12822.000000  0    5515085.152   3939437.272  -1246882.464
10 0 59361  12942.000000  0    5436630.718   3665657.388  -2123318.235
10 0 59361  13062.000000  0    5258014.811   3330185.789  -2962456.444
10 0 59361  13182.000000  0    4981426.291   2940662.520  -3749604.695
10 0 59361  13302.000000  0    4610903.322   2505608.513  -4471015.285
10 0 59361  13422.000000  0    4152265.931   2034237.983  -5114123.771
10 0 59361  13542.000000  0    3613015.470   1536262.223  -5667760.922
10 0 59361  13662.000000  0    3002203.745   1021689.936  -6122337.731
10 0 59361  13782.000000  0    2330274.078    500627.449  -6470000.924
10 0 59361  13902.000000  0    1608879.061    -16916.756  -6704756.362
10 0 59361  14022.000000  0     850679.412   -521220.063  -6822562.855
10 0 59361  14142.000000  0      69123.213  -1003024.549  -6821394.847
10 0 59361  14262.000000  0    -721787.758  -1453702.134  -6701271.561
10 0 59361  14382.000000  0   -1507742.209  -1865404.686  -6464257.332
10 0 59361  14502.000000  0   -2274372.710  -2231198.451  -6114430.381
10 0 59361  14622.000000  0   -3007512.565  -2545179.441  -5657819.459
10 0 59361  14742.000000  0   -3693453.907  -2802569.376  -5102311.429
10 0 59361  14862.000000  0   -4319205.270  -2999791.112  -4457527.071
10 0 59361  14982.000000  0   -4872741.029  -3134520.261  -3734664.727
10 0 59361  15102.000000  0   -5343238.542  -3205712.304  -2946315.109
10 0 59361  15222.000000  0   -5721298.245  -3213604.424  -2106248.107
10 0 59361  15342.000000  0   -5999140.199  -3159691.039  -1229174.408
10 0 59361  15462.000000  0   -6170772.320  -3046673.521   -330486.675
10 0 59361  15582.000000  0   -6232125.406  -2878384.412    574015.312
10 0 59361  15702.000000  0   -6181151.584  -2659688.305   1468410.008
10 0 59361  15822.000000  0   -6017881.114  -2396361.017   2336944.652
10 0 59361  15942.000000  0   -5744435.889  -2094949.983   3164321.174
10 0 59361  16062.000000  0   -5365002.864  -1762620.837   3935973.138
10 0 59361  16182.000000  0   -4885763.338  -1406992.414   4638328.652
10 0 59361  16302.000000  0   -4314783.163  -1035965.560   5259049.410
10 0 59361  16422.000000  0   -3661869.354   -657551.108   5787245.588
99
